[{"OBJECT_NAME":"IRIDIUM 134","OBJECT_ID":"2017-083F","EPOCH":"2026-03-09T21:58:07.186944","MEAN_MOTION":14.34217743,"ECCENTRICITY":0.00020775,"INCLINATION":86.4026,"RA_OF_ASC_NODE":3.549,"ARG_OF_PERICENTER":86.3687,"MEAN_ANOMALY":273.7747,"EPHEMERIS_TYPE":0,"CLASSIFICATION_TYPE":"U","NORAD_CAT_ID":43075,"ELEMENT_SET_NO":999,"REV_AT_EPOCH":42987,"BSTAR":2.4162884e-5,"MEAN_MOTION_DOT":8.7e-7,"MEAN_MOTION_DDOT":0},{"OBJECT_NAME":"COSMOS 2251 DEB","OBJECT_ID":"1993-036H","EPOCH":"2026-03-09T14:29:12.055200","MEAN_MOTION":14.35735966,"ECCENTRICITY":0.0020975,"INCLINATION":74.0308,"RA_OF_ASC_NODE":122.0352,"ARG_OF_PERICENTER":206.3162,"MEAN_ANOMALY":271.6111,"EPHEMERIS_TYPE":0,"CLASSIFICATION_TYPE":"U","NORAD_CAT_ID":33760,"ELEMENT_SET_NO":999,"REV_AT_EPOCH":89371,"BSTAR":0.00010429,"MEAN_MOTION_DOT":2.76e-6,"MEAN_MOTION_DDOT":0}]
